[Satellite]
VERSION=1.1
NAME=ORBCOMM FM04 [+]
NICKNAME=ORBCOMM FM04 [+]
TLE1=1 25159U 98007C   15054.74483635  .00001069  00000-0  47267-3 0  9996
TLE2=2 25159 107.9687   6.6274 0046915 300.2770 120.6095 14.28487024885814
